<?xml version="1.0" encoding="UTF-8"?>
<ndm xmlns:xsi="http://www.w3.org/2001/XMLSchema-instance" xsi:noNamespaceSchemaLocation="https://sanaregistry.org/r/ndmxml_unqualified/ndmxml-2.0.0-master-2.0.xsd">
<omm id="CCSDS_OMM_VERS" version="2.0">
<header><CREATION_DATE/><ORIGINATOR/></header><body><segment><metadata><OBJECT_NAME>KUIPER-00071</OBJECT_NAME><OBJECT_ID>2025-151C</OBJECT_ID><CENTER_NAME>EARTH</CENTER_NAME><REF_FRAME>TEME</REF_FRAME><TIME_SYSTEM>UTC</TIME_SYSTEM><MEAN_ELEMENT_THEORY>SGP4</MEAN_ELEMENT_THEORY></metadata><data><meanElements><EPOCH>2025-09-10T20:12:44.655264</EPOCH><MEAN_MOTION>15.02149523</MEAN_MOTION><ECCENTRICITY>.00069132</ECCENTRICITY><INCLINATION>51.8951</INCLINATION><RA_OF_ASC_NODE>19.3244</RA_OF_ASC_NODE><ARG_OF_PERICENTER>347.7093</ARG_OF_PERICENTER><MEAN_ANOMALY>12.3709</MEAN_ANOMALY></meanElements><tleParameters><EPHEMERIS_TYPE>0</EPHEMERIS_TYPE><CLASSIFICATION_TYPE>U</CLASSIFICATION_TYPE><NORAD_CAT_ID>64818</NORAD_CAT_ID><ELEMENT_SET_NO>999</ELEMENT_SET_NO><REV_AT_EPOCH>862</REV_AT_EPOCH><BSTAR>-.20631519E-1</BSTAR><MEAN_MOTION_DOT>-.264885E-2</MEAN_MOTION_DOT><MEAN_MOTION_DDOT>0</MEAN_MOTION_DDOT></tleParameters></data></segment></body></omm>
<omm id="CCSDS_OMM_VERS" version="2.0">
<header><CREATION_DATE/><ORIGINATOR/></header><body><segment><metadata><OBJECT_NAME>KUIPER-00072</OBJECT_NAME><OBJECT_ID>2025-151D</OBJECT_ID><CENTER_NAME>EARTH</CENTER_NAME><REF_FRAME>TEME</REF_FRAME><TIME_SYSTEM>UTC</TIME_SYSTEM><MEAN_ELEMENT_THEORY>SGP4</MEAN_ELEMENT_THEORY></metadata><data><meanElements><EPOCH>2025-09-10T14:54:18.317376</EPOCH><MEAN_MOTION>15.36691928</MEAN_MOTION><ECCENTRICITY>.0006422</ECCENTRICITY><INCLINATION>51.8795</INCLINATION><RA_OF_ASC_NODE>15.8142</RA_OF_ASC_NODE><ARG_OF_PERICENTER>354.7225</ARG_OF_PERICENTER><MEAN_ANOMALY>5.3693</MEAN_ANOMALY></meanElements><tleParameters><EPHEMERIS_TYPE>0</EPHEMERIS_TYPE><CLASSIFICATION_TYPE>U</CLASSIFICATION_TYPE><NORAD_CAT_ID>64819</NORAD_CAT_ID><ELEMENT_SET_NO>999</ELEMENT_SET_NO><REV_AT_EPOCH>865</REV_AT_EPOCH><BSTAR>.83979513E-3</BSTAR><MEAN_MOTION_DOT>.30315E-3</MEAN_MOTION_DOT><MEAN_MOTION_DDOT>0</MEAN_MOTION_DDOT></tleParameters></data></segment></body></omm>
<omm id="CCSDS_OMM_VERS" version="2.0">
<header><CREATION_DATE/><ORIGINATOR/></header><body><segment><metadata><OBJECT_NAME>KUIPER-00073</OBJECT_NAME><OBJECT_ID>2025-151E</OBJECT_ID><CENTER_NAME>EARTH</CENTER_NAME><REF_FRAME>TEME</REF_FRAME><TIME_SYSTEM>UTC</TIME_SYSTEM><MEAN_ELEMENT_THEORY>SGP4</MEAN_ELEMENT_THEORY></metadata><data><meanElements><EPOCH>2025-09-10T19:45:48.929472</EPOCH><MEAN_MOTION>15.03733988</MEAN_MOTION><ECCENTRICITY>.00113324</ECCENTRICITY><INCLINATION>51.8939</INCLINATION><RA_OF_ASC_NODE>19.4130</RA_OF_ASC_NODE><ARG_OF_PERICENTER>18.0416</ARG_OF_PERICENTER><MEAN_ANOMALY>342.0956</MEAN_ANOMALY></meanElements><tleParameters><EPHEMERIS_TYPE>0</EPHEMERIS_TYPE><CLASSIFICATION_TYPE>U</CLASSIFICATION_TYPE><NORAD_CAT_ID>64820</NORAD_CAT_ID><ELEMENT_SET_NO>999</ELEMENT_SET_NO><REV_AT_EPOCH>980</REV_AT_EPOCH><BSTAR>-.27153289E-1</BSTAR><MEAN_MOTION_DOT>-.359251E-2</MEAN_MOTION_DOT><MEAN_MOTION_DDOT>0</MEAN_MOTION_DDOT></tleParameters></data></segment></body></omm>
<omm id="CCSDS_OMM_VERS" version="2.0">
<header><CREATION_DATE/><ORIGINATOR/></header><body><segment><metadata><OBJECT_NAME>KUIPER-00074</OBJECT_NAME><OBJECT_ID>2025-151F</OBJECT_ID><CENTER_NAME>EARTH</CENTER_NAME><REF_FRAME>TEME</REF_FRAME><TIME_SYSTEM>UTC</TIME_SYSTEM><MEAN_ELEMENT_THEORY>SGP4</MEAN_ELEMENT_THEORY></metadata><data><meanElements><EPOCH>2025-09-10T19:42:43.685280</EPOCH><MEAN_MOTION>15.32922033</MEAN_MOTION><ECCENTRICITY>.00086735</ECCENTRICITY><INCLINATION>51.8797</INCLINATION><RA_OF_ASC_NODE>14.8959</RA_OF_ASC_NODE><ARG_OF_PERICENTER>351.2740</ARG_OF_PERICENTER><MEAN_ANOMALY>8.8093</MEAN_ANOMALY></meanElements><tleParameters><EPHEMERIS_TYPE>0</EPHEMERIS_TYPE><CLASSIFICATION_TYPE>U</CLASSIFICATION_TYPE><NORAD_CAT_ID>64821</NORAD_CAT_ID><ELEMENT_SET_NO>999</ELEMENT_SET_NO><REV_AT_EPOCH>868</REV_AT_EPOCH><BSTAR>-.96234392E-2</BSTAR><MEAN_MOTION_DOT>-.299417E-2</MEAN_MOTION_DOT><MEAN_MOTION_DDOT>0</MEAN_MOTION_DDOT></tleParameters></data></segment></body></omm>
<omm id="CCSDS_OMM_VERS" version="2.0">
<header><CREATION_DATE/><ORIGINATOR/></header><body><segment><metadata><OBJECT_NAME>KUIPER-00075</OBJECT_NAME><OBJECT_ID>2025-151G</OBJECT_ID><CENTER_NAME>EARTH</CENTER_NAME><REF_FRAME>TEME</REF_FRAME><TIME_SYSTEM>UTC</TIME_SYSTEM><MEAN_ELEMENT_THEORY>SGP4</MEAN_ELEMENT_THEORY></metadata><data><meanElements><EPOCH>2025-09-10T14:23:11.772384</EPOCH><MEAN_MOTION>15.37443242</MEAN_MOTION><ECCENTRICITY>.00058374</ECCENTRICITY><INCLINATION>51.8795</INCLINATION><RA_OF_ASC_NODE>15.6878</RA_OF_ASC_NODE><ARG_OF_PERICENTER>340.9095</ARG_OF_PERICENTER><MEAN_ANOMALY>19.1672</MEAN_ANOMALY></meanElements><tleParameters><EPHEMERIS_TYPE>0</EPHEMERIS_TYPE><CLASSIFICATION_TYPE>U</CLASSIFICATION_TYPE><NORAD_CAT_ID>64822</NORAD_CAT_ID><ELEMENT_SET_NO>999</ELEMENT_SET_NO><REV_AT_EPOCH>865</REV_AT_EPOCH><BSTAR>.91770424E-3</BSTAR><MEAN_MOTION_DOT>.33999E-3</MEAN_MOTION_DOT><MEAN_MOTION_DDOT>0</MEAN_MOTION_DDOT></tleParameters></data></segment></body></omm>
<omm id="CCSDS_OMM_VERS" version="2.0">
<header><CREATION_DATE/><ORIGINATOR/></header><body><segment><metadata><OBJECT_NAME>KUIPER-00076</OBJECT_NAME><OBJECT_ID>2025-151H</OBJECT_ID><CENTER_NAME>EARTH</CENTER_NAME><REF_FRAME>TEME</REF_FRAME><TIME_SYSTEM>UTC</TIME_SYSTEM><MEAN_ELEMENT_THEORY>SGP4</MEAN_ELEMENT_THEORY></metadata><data><meanElements><EPOCH>2025-09-10T17:11:22.775712</EPOCH><MEAN_MOTION>15.28668034</MEAN_MOTION><ECCENTRICITY>.00064398</ECCENTRICITY><INCLINATION>51.8829</INCLINATION><RA_OF_ASC_NODE>15.7163</RA_OF_ASC_NODE><ARG_OF_PERICENTER>339.6860</ARG_OF_PERICENTER><MEAN_ANOMALY>20.3866</MEAN_ANOMALY></meanElements><tleParameters><EPHEMERIS_TYPE>0</EPHEMERIS_TYPE><CLASSIFICATION_TYPE>U</CLASSIFICATION_TYPE><NORAD_CAT_ID>64823</NORAD_CAT_ID><ELEMENT_SET_NO>999</ELEMENT_SET_NO><REV_AT_EPOCH>866</REV_AT_EPOCH><BSTAR>-.12536302E-1</BSTAR><MEAN_MOTION_DOT>-.339489E-2</MEAN_MOTION_DOT><MEAN_MOTION_DDOT>0</MEAN_MOTION_DDOT></tleParameters></data></segment></body></omm>
<omm id="CCSDS_OMM_VERS" version="2.0">
<header><CREATION_DATE/><ORIGINATOR/></header><body><segment><metadata><OBJECT_NAME>KUIPER-00077</OBJECT_NAME><OBJECT_ID>2025-151J</OBJECT_ID><CENTER_NAME>EARTH</CENTER_NAME><REF_FRAME>TEME</REF_FRAME><TIME_SYSTEM>UTC</TIME_SYSTEM><MEAN_ELEMENT_THEORY>SGP4</MEAN_ELEMENT_THEORY></metadata><data><meanElements><EPOCH>2025-09-10T20:11:55.602528</EPOCH><MEAN_MOTION>15.17422127</MEAN_MOTION><ECCENTRICITY>.0008468</ECCENTRICITY><INCLINATION>51.8919</INCLINATION><RA_OF_ASC_NODE>16.5686</RA_OF_ASC_NODE><ARG_OF_PERICENTER>344.6909</ARG_OF_PERICENTER><MEAN_ANOMALY>15.3812</MEAN_ANOMALY></meanElements><tleParameters><EPHEMERIS_TYPE>0</EPHEMERIS_TYPE><CLASSIFICATION_TYPE>U</CLASSIFICATION_TYPE><NORAD_CAT_ID>64824</NORAD_CAT_ID><ELEMENT_SET_NO>999</ELEMENT_SET_NO><REV_AT_EPOCH>866</REV_AT_EPOCH><BSTAR>-.18817749E-1</BSTAR><MEAN_MOTION_DOT>-.363582E-2</MEAN_MOTION_DOT><MEAN_MOTION_DDOT>0</MEAN_MOTION_DDOT></tleParameters></data></segment></body></omm>
<omm id="CCSDS_OMM_VERS" version="2.0">
<header><CREATION_DATE/><ORIGINATOR/></header><body><segment><metadata><OBJECT_NAME>KUIPER-00078</OBJECT_NAME><OBJECT_ID>2025-151K</OBJECT_ID><CENTER_NAME>EARTH</CENTER_NAME><REF_FRAME>TEME</REF_FRAME><TIME_SYSTEM>UTC</TIME_SYSTEM><MEAN_ELEMENT_THEORY>SGP4</MEAN_ELEMENT_THEORY></metadata><data><meanElements><EPOCH>2025-09-10T20:02:14.165952</EPOCH><MEAN_MOTION>15.22747759</MEAN_MOTION><ECCENTRICITY>.00081736</ECCENTRICITY><INCLINATION>51.8820</INCLINATION><RA_OF_ASC_NODE>15.7671</RA_OF_ASC_NODE><ARG_OF_PERICENTER>25.0389</ARG_OF_PERICENTER><MEAN_ANOMALY>335.0986</MEAN_ANOMALY></meanElements><tleParameters><EPHEMERIS_TYPE>0</EPHEMERIS_TYPE><CLASSIFICATION_TYPE>U</CLASSIFICATION_TYPE><NORAD_CAT_ID>64825</NORAD_CAT_ID><ELEMENT_SET_NO>999</ELEMENT_SET_NO><REV_AT_EPOCH>867</REV_AT_EPOCH><BSTAR>-.14985878E-1</BSTAR><MEAN_MOTION_DOT>-.339467E-2</MEAN_MOTION_DOT><MEAN_MOTION_DDOT>0</MEAN_MOTION_DDOT></tleParameters></data></segment></body></omm>

</ndm>
