KUIPER-00071            
1 64818U 25151C   25253.84218351 -.00264885  00000+0 -20632-1 0  9998
2 64818  51.8951  19.3244 0006913 347.7093  12.3709 15.02149523  8623
KUIPER-00072            
1 64819U 25151D   25253.62104534  .00030315  00000+0  83980-3 0  9996
2 64819  51.8795  15.8142 0006422 354.7225   5.3693 15.36691928  8653
KUIPER-00073            
1 64820U 25151E   25253.82348298 -.00359251  00000+0 -27153-1 0  9990
2 64820  51.8939  19.4130 0011332  18.0416 342.0956 15.03733988  9808
KUIPER-00074            
1 64821U 25151F   25253.82133895 -.00299417  00000+0 -96234-2 0  9990
2 64821  51.8797  14.8959 0008673 351.2740   8.8093 15.32922033  8682
KUIPER-00075            
1 64822U 25151G   25253.59944181  .00033999  00000+0  91770-3 0  9993
2 64822  51.8795  15.6878 0005837 340.9095  19.1672 15.37443242  8657
KUIPER-00076            
1 64823U 25151H   25253.71623583 -.00339489  00000+0 -12536-1 0  9994
2 64823  51.8829  15.7163 0006439 339.6860  20.3866 15.28668034  8666
KUIPER-00077            
1 64824U 25151J   25253.84161577 -.00363582  00000+0 -18818-1 0  9999
2 64824  51.8919  16.5686 0008468 344.6909  15.3812 15.17422127  8664
KUIPER-00078            
1 64825U 25151K   25253.83488618 -.00339467  00000+0 -14986-1 0  9994
2 64825  51.8820  15.7671 0008173  25.0389 335.0986 15.22747759  8678
